NORAD_CAT_ID,OBJECT_NAME,OBJECT_TYPE,EPOCH,MEAN_MOTION,ECCENTRICITY,INCLINATION,RA_OF_ASC_NODE,ARG_OF_PERICENTER,MEAN_ANOMALY,BSTAR,MEAN_MOTION_DOT,MEAN_MOTION_DDOT,TLE_LINE0,TLE_LINE1,TLE_LINE2,SEMIMAJOR_AXIS,PERIOD,APOGEE,PERIGEE,DECAYED
54791.0,STARLINK-5425,PAYLOAD,2023-06-18 07:44:12,15.08832921,0.0001042,53.2164,177.4434,74.3552,285.7555,-5.2238e-05,-1.119e-05,0.0,0 STARLINK-5425,1 54791U 22175AK  23169.32236635 -.00001119  00000-0 -52238-4 0  9992,2 54791  53.2164 177.4434 0001042  74.3552 285.7555 15.08832921 29863,6917.902,95.438,540.488,539.046,0.0
54791.0,STARLINK-5425,PAYLOAD,2023-06-19 09:10:22,15.08835665,0.0001051,53.2166,172.6859,75.0087,285.1021,1.7144e-05,-1.5e-07,0.0,0 STARLINK-5425,1 54791U 22175AK  23170.38220599 -.00000015  00000-0  17144-4 0  9992,2 54791  53.2166 172.6859 0001051  75.0087 285.1021 15.08835665 27862,6917.894,95.438,540.486,539.032,0.0
54791.0,STARLINK-5425,PAYLOAD,2023-06-19 17:07:18,15.08835944,0.0001046,53.2169,171.2004,79.0906,281.0204,4.8505e-05,4.84e-06,0.0,0 STARLINK-5425,1 54791U 22175AK  23170.71340561  .00000484  00000-0  48505-4 0  9995,2 54791  53.2169 171.2004 0001046  79.0906 281.0204 15.08835944 30075,6917.893,95.438,540.481,539.034,0.0
54791.0,STARLINK-5425,PAYLOAD,2023-06-20 01:04:13,15.08836631,0.0001039,53.2164,169.7113,76.321,283.7898,8.4576e-05,1.058e-05,0.0,0 STARLINK-5425,1 54791U 22175AK  23171.04460422  .00001058  00000-0  84576-4 0  9997,2 54791  53.2164 169.7113 0001039  76.3210 283.7898 15.08836631 30121,6917.891,95.438,540.474,539.037,0.0
54791.0,STARLINK-5425,PAYLOAD,2023-06-21 07:16:33,15.0884218,0.0001054,53.2161,164.0626,76.3109,283.8,4.2099e-05,3.82e-06,0.0,0 STARLINK-5425,1 54791U 22175AK  23172.30316292  .00000382  00000-0  42099-4 0  9995,2 54791  53.2161 164.0626 0001054  76.3109 283.8000 15.08842180 28151,6917.874,95.437,540.468,539.01,0.0
54791.0,STARLINK-5425,PAYLOAD,2023-06-21 16:48:52,15.08839722,0.0001087,53.2162,162.2791,75.9972,284.1141,1.0316e-05,-1.24e-06,0.0,0 STARLINK-5425,1 54791U 22175AK  23172.70060514 -.00000124  00000-0  10316-4 0  9994,2 54791  53.2162 162.2791 0001087  75.9972 284.1141 15.08839722 30379,6917.881,95.438,540.498,538.994,0.0
54791.0,STARLINK-5425,PAYLOAD,2023-06-22 08:42:43,15.08840962,0.0001124,53.2162,159.3042,83.6166,276.4954,-4.002e-07,-2.94e-06,0.0,0 STARLINK-5425,1 54791U 22175AK  23173.36300368 -.00000294  00000-0 -40020-6 0  9997,2 54791  53.2162 159.3042 0001124  83.6166 276.4954 15.08840962 28313,6917.877,95.437,540.52,538.965,0.0
54791.0,STARLINK-5425,PAYLOAD,2023-06-24 02:02:45,15.08834428,0.000117,53.2163,151.5719,88.9143,271.1983,-3.286e-05,-8.11e-06,0.0,0 STARLINK-5425,1 54791U 22175AK  23175.08524883 -.00000811  00000-0 -32860-4 0  9994,2 54791  53.2163 151.5719 0001170  88.9143 271.1983 15.08834428 28575,6917.897,95.438,540.572,538.953,0.0
54791.0,STARLINK-5425,PAYLOAD,2023-06-25 03:28:55,15.08839632,0.0001211,53.2167,146.8143,89.9016,270.2115,1.5707e-05,-3.8e-07,0.0,0 STARLINK-5425,1 54791U 22175AK  23176.14508598 -.00000038  00000-0  15707-4 0  9998,2 54791  53.2167 146.8143 0001211  89.9016 270.2115 15.08839632 28730,6917.882,95.438,540.584,538.909,0.0
54791.0,STARLINK-5425,PAYLOAD,2023-06-26 01:44:20,15.08815079,0.0001344,53.2167,142.6523,105.7544,254.3597,0.00018259,2.617e-05,0.0,0 STARLINK-5425,1 54791U 22175AK  23177.07245466  .00002617  00000-0  18259-3 0  9991,2 54791  53.2167 142.6523 0001344 105.7544 254.3597 15.08815079 28877,6917.957,95.439,540.751,538.892,0.0
54791.0,STARLINK-5425,PAYLOAD,2023-06-26 08:05:52,15.08834004,0.0001163,53.2162,141.4632,99.7856,260.3267,2.7367e-05,1.48e-06,0.0,0 STARLINK-5425,1 54791U 22175AK  23177.33741147  .00000148  00000-0  27367-4 0  9995,2 54791  53.2162 141.4632 0001163  99.7856 260.3267 15.08834004 28912,6917.899,95.438,540.568,538.959,0.0
54791.0,STARLINK-5425,PAYLOAD,2023-06-26 14:27:25,15.08827815,0.0001108,53.2162,140.2739,91.5296,268.5823,6.7321e-06,-1.81e-06,0.0,0 STARLINK-5425,1 54791U 22175AK  23177.60237740 -.00000181  00000-0  67321-5 0  9997,2 54791  53.2162 140.2739 0001108  91.5296 268.5823 15.08827815 28958,6917.918,95.438,540.549,539.016,0.0
54791.0,STARLINK-5425,PAYLOAD,2023-06-27 14:18:12,15.08841032,0.0001164,53.2167,135.8137,92.6283,267.4842,-1.671e-05,-5.54e-06,0.0,0 STARLINK-5425,1 54791U 22175AK  23178.59597429 -.00000554  00000-0 -16710-4 0  9999,2 54791  53.2167 135.8137 0001164  92.6283 267.4842 15.08841032 29109,6917.877,95.437,540.547,538.937,0.0
54791.0,STARLINK-5425,PAYLOAD,2023-06-29 01:16:41,15.08829859,0.0001325,53.2173,129.271,88.5502,271.5642,3.5096e-05,2.71e-06,0.0,0 STARLINK-5425,1 54791U 22175AK  23180.05326260  .00000271  00000-0  35096-4 0  9998,2 54791  53.2173 129.2710 0001325  88.5502 271.5642 15.08829859 29328,6917.911,95.438,540.693,538.86,0.0
54791.0,STARLINK-5425,PAYLOAD,2023-06-30 13:50:33,15.08833724,0.0001399,53.218,122.4298,96.7983,263.3168,-3.8579e-05,-9.02e-06,0.0,0 STARLINK-5425,1 54791U 22175AK  23181.57677969 -.00000902  00000-0 -38579-4 0  9993,2 54791  53.2180 122.4298 0001399  96.7983 263.3168 15.08833724 29550,6917.9,95.438,540.732,538.797,0.0
54791.0,STARLINK-5425,PAYLOAD,2023-07-01 15:16:44,15.08836779,0.0001299,53.217,117.6753,81.4443,278.6696,-4.4369e-06,-3.58e-06,0.0,0 STARLINK-5425,1 54791U 22175AK  23182.63662043 -.00000358  00000-0 -44369-5 0  9998,2 54791  53.2170 117.6753 0001299  81.4443 278.6696 15.08836779 29718,6917.89,95.438,540.654,538.857,0.0
54791.0,STARLINK-5425,PAYLOAD,2023-07-02 02:24:25,15.08844413,0.0001245,53.2172,115.5936,82.0354,278.0779,1.2715e-05,-8.5e-07,0.0,0 STARLINK-5425,1 54791U 22175AK  23183.10029462 -.00000085  00000-0  12715-4 0  9998,2 54791  53.2172 115.5936 0001245  82.0354 278.0779 15.08844413 29786,6917.867,95.437,540.593,538.871,0.0
54791.0,STARLINK-5425,PAYLOAD,2023-07-03 02:15:13,15.0883382,0.0001283,53.217,111.1335,77.4827,282.6308,8.6446e-05,1.088e-05,0.0,0 STARLINK-5425,1 54791U 22175AK  23184.09390059  .00001088  00000-0  86446-4 0  9995,2 54791  53.2170 111.1335 0001283  77.4827 282.6308 15.08833820 29930,6917.899,95.438,540.652,538.877,0.0
54791.0,STARLINK-5425,PAYLOAD,2023-07-04 03:41:23,15.0884309,0.0001257,53.2171,106.3756,85.7952,274.3184,3.5113e-06,-2.32e-06,0.0,0 STARLINK-5425,1 54791U 22175AK  23185.15373889 -.00000232  00000-0  35113-5 0  9992,2 54791  53.2171 106.3756 0001257  85.7952 274.3184 15.08843090 30095,6917.871,95.437,540.606,538.866,0.0
54791.0,STARLINK-5425,PAYLOAD,2023-07-05 00:21:24,15.08838227,0.0001227,53.2172,102.5094,92.3975,267.7157,-3.7515e-05,-8.85e-06,0.0,0 STARLINK-5425,1 54791U 22175AK  23186.01486450 -.00000885  00000-0 -37515-4 0  9999,2 54791  53.2172 102.5094 0001227  92.3975 267.7157 15.08838227 30222,6917.886,95.438,540.6,538.902,0.0
54791.0,STARLINK-5425,PAYLOAD,2023-07-05 11:29:06,15.08824082,0.0001211,53.2173,100.4282,90.3486,269.7645,0.00012129,1.642e-05,0.0,0 STARLINK-5425,1 54791U 22175AK  23186.47854907  .00001642  00000-0  12129-3 0  9998,2 54791  53.2173 100.4282 0001211  90.3486 269.7645 15.08824082 30292,6917.929,95.439,540.632,538.956,0.0
54791.0,STARLINK-5425,PAYLOAD,2023-07-06 00:12:11,15.08835843,0.0001245,53.2173,98.049,91.095,269.0184,2.2763e-05,7.4e-07,0.0,0 STARLINK-5425,1 54791U 22175AK  23187.00846570  .00000074  00000-0  22763-4 0  9999,2 54791  53.2173  98.0490 0001245  91.0950 269.0184 15.08835843 30373,6917.893,95.438,540.619,538.897,0.0
54791.0,STARLINK-5425,PAYLOAD,2023-07-08 03:04:30,15.08848246,0.0001268,53.2178,88.5324,93.2547,266.859,7.0934e-05,8.41e-06,0.0,0 STARLINK-5425,1 54791U 22175AK  23189.12813539  .00000841  00000-0  70934-4 0  9998,2 54791  53.2178  88.5324 0001268  93.2547 266.8590 15.08848246 30691,6917.855,95.437,540.597,538.843,0.0
54791.0,STARLINK-5425,PAYLOAD,2023-07-08 18:58:23,15.08831929,0.0001101,53.2178,85.5598,98.7522,261.3595,-6.2765e-05,-1.286e-05,0.0,0 STARLINK-5425,1 54791U 22175AK  23189.79055072 -.00001286  00000-0 -62765-4 0  9990,2 54791  53.2178  85.5598 0001101  98.7522 261.3595 15.08831929 30796,6917.905,95.438,540.532,539.008,0.0
54791.0,STARLINK-5425,PAYLOAD,2023-07-09 02:55:18,15.08836811,0.0001085,53.2177,84.0727,96.9536,263.158,-1.4639e-05,-5.21e-06,0.0,0 STARLINK-5425,1 54791U 22175AK  23190.12174683 -.00000521  00000-0 -14639-4 0  9997,2 54791  53.2177  84.0727 0001085  96.9536 263.1580 15.08836811 30844,6917.89,95.438,540.506,539.005,0.0
54791.0,STARLINK-5425,PAYLOAD,2023-07-10 09:07:38,15.08838966,0.0001016,53.2176,78.4234,90.9837,269.1272,-5.3562e-05,-1.14e-05,0.0,0 STARLINK-5425,1 54791U 22175AK  23191.38030852 -.00001140  00000-0 -53562-4 0  9991,2 54791  53.2176  78.4234 0001016  90.9837 269.1272 15.08838966 31034,6917.884,95.438,540.451,539.046,0.0
54791.0,STARLINK-5425,PAYLOAD,2023-07-12 00:52:17,15.0882989,0.0001008,53.2193,70.9917,104.133,255.9774,0.00015025,2.104e-05,0.0,0 STARLINK-5425,1 54791U 22175AK  23193.03631094  .00002104  00000-0  15025-3 0  9990,2 54791  53.2193  70.9917 0001008 104.1330 255.9774 15.08829890 31288,6917.911,95.438,540.474,539.079,0.0
54791.0,STARLINK-5425,PAYLOAD,2023-07-13 00:43:04,15.08842447,0.0001157,53.2188,66.5307,99.7313,260.381,1.0092e-05,-1.27e-06,0.0,0 STARLINK-5425,1 54791U 22175AK  23194.02990959 -.00000127  00000-0  10092-4 0  9992,2 54791  53.2188  66.5307 0001157  99.7313 260.3810 15.08842447 31432,6917.873,95.437,540.538,538.938,0.0
54791.0,STARLINK-5425,PAYLOAD,2023-07-13 21:23:05,15.08832832,0.0001225,53.2185,62.6641,90.0152,270.098,-5.5717e-05,-1.174e-05,0.0,0 STARLINK-5425,1 54791U 22175AK  23194.89104056 -.00001174  00000-0 -55717-4 0  9999,2 54791  53.2185  62.6641 0001225  90.0152 270.0980 15.08832832 31565,6917.902,95.438,540.615,538.92,0.0
54791.0,STARLINK-5425,PAYLOAD,2023-07-15 00:24:37,15.08852451,0.000101,53.2184,57.605,95.8016,264.3092,7.9882e-05,9.84e-06,0.0,0 STARLINK-5425,1 54791U 22175AK  23196.01710198  .00000984  00000-0  79882-4 0  9990,2 54791  53.2184  57.6050 0001010  95.8016 264.3092 15.08852451 31734,6917.842,95.437,540.406,539.009,0.0
